{
  "norad_id": 61870,
  "name": "2024-203B",
  "history": [
    {
      "epoch": "2026-03-28T22:09:51.542208Z",
      "apogee_km": 488.68211615817836,
      "perigee_km": 474.5296434280199,
      "latitude_deg": -2.6535014240844316e-05,
      "longitude_deg": -0.3571478628699505,
      "height_km": 487.82820923613735,
      "semi_major_axis_km": 6859.742879793099,
      "eccentricity": 0.00103156,
      "inclination_deg": 97.4243,
      "raan_deg": 158.4446,
      "arg_perigee_deg": 243.9005,
      "mean_anomaly_deg": 116.1173,
      "mean_motion_rev_day": 15.28062105
    },
    {
      "epoch": "2026-03-29T04:27:02.871360Z",
      "apogee_km": 488.64716245698946,
      "perigee_km": 474.496954611046,
      "latitude_deg": 2.5105842466506385e-05,
      "longitude_deg": -94.65173586333937,
      "height_km": 487.89328413975255,
      "semi_major_axis_km": 6859.7090585340175,
      "eccentricity": 0.0010314,
      "inclination_deg": 97.4242,
      "raan_deg": 158.7054,
      "arg_perigee_deg": 243.0009,
      "mean_anomaly_deg": 117.0178,
      "mean_motion_rev_day": 15.28073406
    }
  ]
}